OBJECT_NAME,OBJECT_ID,EPOCH,MEAN_MOTION,ECCENTRICITY,INCLINATION,RA_OF_ASC_NODE,ARG_OF_PERICENTER,MEAN_ANOMALY,EPHEMERIS_TYPE,CLASSIFICATION_TYPE,NORAD_CAT_ID,ELEMENT_SET_NO,REV_AT_EPOCH,BSTAR,MEAN_MOTION_DOT,MEAN_MOTION_DDOT
FENGYUN 1C DEB,1999-025EWH,2026-03-06T14:34:55.253280,13.37245619,.03985124,106.1831,347.6154,157.9132,327.7913,0,U,39540,999,70219,.24056459E-2,.1895E-4,0
FENGYUN 1C DEB,1999-025EWJ,2026-03-19T08:15:31.888512,14.20671366,.00723762,98.6655,123.6305,153.0465,207.4501,0,U,39541,999,60374,.48343479E-3,.1026E-4,0
FENGYUN 1C DEB,1999-025EWM,2026-03-21T11:07:58.857024,14.05689532,.00551074,98.7314,321.0865,90.6628,270.0855,0,U,39544,999,58242,.47657353E-3,.746E-5,0
FENGYUN 1C DEB,1999-025EWU,2026-03-20T15:15:12.602592,13.83947073,.01433297,98.9809,229.8154,127.8022,233.6211,0,U,40688,999,31271,.35109317E-3,.381E-5,0
FENGYUN 1C DEB,1999-025EWV,2026-03-20T12:12:03.387456,13.65110676,.03077804,99.1267,356.8004,207.6126,150.8377,0,U,40689,999,56217,.80073397E-3,.855E-5,0
FENGYUN 1C DEB,1999-025EWX,2026-03-04T07:56:06.493344,13.89995484,.01297532,99.0467,98.4117,89.5353,272.0672,0,U,40691,999,56569,.22387766E-3,.253E-5,0
FENGYUN 1C DEB,1999-025EXB,2026-03-17T15:08:31.481088,14.51488745,.02796952,99.4341,211.4172,51.1974,311.3840,0,U,40695,999,33242,.1327362E-3,.809E-5,0
FENGYUN 1C DEB,1999-025EXH,2026-03-19T01:56:21.003360,14.79050475,.00654061,98.9680,12.6161,351.4732,8.5359,0,U,41003,999,53841,.35258587E-2,.27067E-3,0
FENGYUN 1C DEB,1999-025EXK,2026-02-27T21:17:32.077248,13.51021486,.057041,98.9539,94.9098,256.1981,97.5082,0,U,41005,999,53422,.10813E-2,.1912E-4,0
FENGYUN 1C DEB,1999-025EXL,2026-03-20T14:03:41.912928,13.86035611,.0183822,102.3663,346.3404,136.8539,224.7177,0,U,41006,999,58844,.19733E-2,.2526E-4,0
FENGYUN 1C DEB,1999-025EXR,2026-03-21T09:48:56.747232,14.43741576,.03082312,99.1509,138.0130,66.2942,297.0264,0,U,41011,999,58580,.66518763E-3,.3985E-4,0
FENGYUN 1C DEB,1999-025EXY,2026-02-24T01:48:01.828224,13.52667997,.0310877,99.9517,4.7324,298.0140,58.9867,0,U,41018,999,89166,.66154E-3,.547E-5,0
FENGYUN 1C DEB,1999-025EXZ,2026-03-20T03:13:33.734208,14.25535166,.00520139,98.7204,149.8295,297.5755,62.0147,0,U,41822,999,48760,.10425122E-2,.2456E-4,0
FENGYUN 1C DEB,1999-025EYA,2026-03-21T14:46:36.198336,14.24199421,.00518655,98.7077,148.0734,301.6865,57.9262,0,U,41823,999,48765,.12754024E-2,.2937E-4,0
FENGYUN 1C DEB,1999-025EYB,2026-03-21T04:10:27.371424,14.24889139,.00539358,98.7187,148.5651,301.9552,57.6389,0,U,41824,999,48761,.1134737E-2,.2647E-4,0
FENGYUN 1C DEB,1999-025EYC,2026-03-19T15:52:34.758624,14.25846328,.00521626,98.7304,152.3431,298.8980,60.6973,0,U,41825,999,48729,.976029E-3,.2311E-4,0
FENGYUN 1C DEB,1999-025EYE,2026-03-20T15:45:25.589088,14.26048442,.00547037,98.7304,153.5469,289.3735,70.1536,0,U,41827,999,48726,.1099614E-2,.2624E-4,0
FENGYUN 1C DEB,1999-025EYG,2026-03-21T11:34:44.130144,14.25877530,.0052639,98.7331,154.3672,291.0682,68.4874,0,U,41829,999,48714,.14582263E-2,.3479E-4,0
FENGYUN 1C DEB,1999-025EYH,2026-03-21T11:48:19.006560,14.27293053,.00510086,98.7418,157.4644,288.5141,71.0501,0,U,41830,999,48682,.14754003E-2,.3617E-4,0
FENGYUN 1C DEB,1999-025EYM,2026-03-20T03:28:41.456928,14.24548766,.00515657,98.7229,147.9044,305.1398,54.4955,0,U,43213,999,41759,.10143025E-2,.2342E-4,0
