FENGYUN 1C DEB          
1 39540U 99025EWH 26065.60758395  .00001895  00000+0  24056-2 0  9999
2 39540 106.1831 347.6154 0398512 157.9132 327.7913 13.37245619702191
FENGYUN 1C DEB          
1 39541U 99025EWJ 26078.34411908  .00001026  00000+0  48343-3 0  9993
2 39541  98.6655 123.6305 0072376 153.0465 207.4501 14.20671366603747
FENGYUN 1C DEB          
1 39544U 99025EWM 26080.46387566  .00000746  00000+0  47657-3 0  9999
2 39544  98.7314 321.0865 0055107  90.6628 270.0855 14.05689532582424
FENGYUN 1C DEB          
1 40688U 99025EWU 26079.63556253  .00000381  00000+0  35109-3 0  9992
2 40688  98.9809 229.8154 0143329 127.8022 233.6211 13.83947073312713
FENGYUN 1C DEB          
1 40689U 99025EWV 26079.50837254  .00000855  00000+0  80073-3 0  9998
2 40689  99.1267 356.8004 0307780 207.6126 150.8377 13.65110676562176
FENGYUN 1C DEB          
1 40691U 99025EWX 26063.33063071  .00000253  00000+0  22388-3 0  9990
2 40691  99.0467  98.4117 0129753  89.5353 272.0672 13.89995484565694
FENGYUN 1C DEB          
1 40695U 99025EXB 26076.63091992  .00000809  00000+0  13274-3 0  9995
2 40695  99.4341 211.4172 0279695  51.1974 311.3840 14.51488745332420
FENGYUN 1C DEB          
1 41003U 99025EXH 26078.08079865  .00027067  00000+0  35259-2 0  9996
2 41003  98.9680  12.6161 0065406 351.4732   8.5359 14.79050475538416
FENGYUN 1C DEB          
1 41005U 99025EXK 26058.88717682  .00001912  00000+0  10813-2 0  9990
2 41005  98.9539  94.9098 0570410 256.1981  97.5082 13.51021486534221
FENGYUN 1C DEB          
1 41006U 99025EXL 26079.58590177  .00002526  00000+0  19733-2 0  9991
2 41006 102.3663 346.3404 0183822 136.8539 224.7177 13.86035611588440
FENGYUN 1C DEB          
1 41011U 99025EXR 26080.40899013  .00003985  00000+0  66519-3 0  9996
2 41011  99.1509 138.0130 0308231  66.2942 297.0264 14.43741576585802
FENGYUN 1C DEB          
1 41018U 99025EXY 26055.07502116  .00000547  00000+0  66154-3 0  9999
2 41018  99.9517   4.7324 0310877 298.0140  58.9867 13.52667997891664
FENGYUN 1C DEB          
1 41822U 99025EXZ 26079.13441822  .00002456  00000+0  10425-2 0  9991
2 41822  98.7204 149.8295 0052013 297.5755  62.0147 14.25535166487601
FENGYUN 1C DEB          
1 41823U 99025EYA 26080.61569674  .00002937  00000+0  12754-2 0  9994
2 41823  98.7077 148.0734 0051865 301.6865  57.9262 14.24199421487657
FENGYUN 1C DEB          
1 41824U 99025EYB 26080.17392791  .00002647  00000+0  11347-2 0  9995
2 41824  98.7187 148.5651 0053935 301.9552  57.6389 14.24889139487614
FENGYUN 1C DEB          
1 41825U 99025EYC 26078.66151341  .00002311  00000+0  97603-3 0  9999
2 41825  98.7304 152.3431 0052162 298.8980  60.6973 14.25846328487296
FENGYUN 1C DEB          
1 41827U 99025EYE 26079.65654617  .00002624  00000+0  10996-2 0  9991
2 41827  98.7304 153.5469 0054703 289.3735  70.1536 14.26048442487268
FENGYUN 1C DEB          
1 41829U 99025EYG 26080.48245521  .00003479  00000+0  14582-2 0  9990
2 41829  98.7331 154.3672 0052639 291.0682  68.4874 14.25877530487141
FENGYUN 1C DEB          
1 41830U 99025EYH 26080.49188665  .00003617  00000+0  14754-2 0  9993
2 41830  98.7418 157.4644 0051008 288.5141  71.0501 14.27293053486827
FENGYUN 1C DEB          
1 43213U 99025EYM 26079.14492427  .00002342  00000+0  10143-2 0  9996
2 43213  98.7229 147.9044 0051565 305.1398  54.4955 14.24548766417597
